NORAD_CAT_ID,OBJECT_NAME,OBJECT_TYPE,EPOCH,MEAN_MOTION,ECCENTRICITY,INCLINATION,RA_OF_ASC_NODE,ARG_OF_PERICENTER,MEAN_ANOMALY,BSTAR,MEAN_MOTION_DOT,MEAN_MOTION_DDOT,TLE_LINE0,TLE_LINE1,TLE_LINE2,SEMIMAJOR_AXIS,PERIOD,APOGEE,PERIGEE,DECAYED
52284.0,STARLINK-3561,PAYLOAD,2023-06-06 15:52:21,15.08844267,0.0001071,53.2162,299.8461,80.2515,279.8598,0.00017007,2.42e-05,0.0,0 STARLINK-3561,1 52284U 22041Z   23157.66135866  .00002420  00000-0  17007-3 0  9995,2 52284  53.2162 299.8461 0001071  80.2515 279.8598 15.08844267 62473,6917.867,95.437,540.473,538.991,0.0
52284.0,STARLINK-3561,PAYLOAD,2023-06-07 10:56:59,15.08831917,0.0001118,53.2162,296.2776,82.2452,277.8667,0.00023421,3.441e-05,0.0,0 STARLINK-3561,1 52284U 22041Z   23158.45624614  .00003441  00000-0  23421-3 0  9998,2 52284  53.2162 296.2776 0001118  82.2452 277.8667 15.08831917 62593,6917.905,95.438,540.544,538.997,0.0
52284.0,STARLINK-3561,PAYLOAD,2023-06-07 18:53:54,15.08846119,0.000105,53.2161,294.7904,82.8538,277.2574,0.0001616,2.285e-05,0.0,0 STARLINK-3561,1 52284U 22041Z   23158.78743812  .00002285  00000-0  16160-3 0  9993,2 52284  53.2161 294.7904 0001050  82.8538 277.2574 15.08846119 63866,6917.862,95.437,540.453,539.0,0.0
52284.0,STARLINK-3561,PAYLOAD,2023-06-08 09:12:23,15.08838456,0.0001137,53.2156,292.1126,99.5413,260.5708,8.33e-05,1.038e-05,0.0,0 STARLINK-3561,1 52284U 22041Z   23159.38360166  .00001038  00000-0  83300-4 0  9993,2 52284  53.2156 292.1126 0001137  99.5413 260.5708 15.08838456 63950,6917.885,95.438,540.537,538.964,0.0
52284.0,STARLINK-3561,PAYLOAD,2023-06-08 12:23:09,15.08841552,0.0001287,53.2151,291.5173,106.7582,253.3552,0.00011667,1.569e-05,0.0,0 STARLINK-3561,1 52284U 22041Z   23159.51607982  .00001569  00000-0  11667-3 0  9993,2 52284  53.2151 291.5173 0001287 106.7582 253.3552 15.08841552 62759,6917.876,95.437,540.631,538.85,0.0
52284.0,STARLINK-3561,PAYLOAD,2023-06-08 15:33:55,15.08844485,0.0001014,53.2163,290.9252,88.1399,271.9709,0.00016471,2.335e-05,0.0,0 STARLINK-3561,1 52284U 22041Z   23159.64855919  .00002335  00000-0  16471-3 0  9992,2 52284  53.2163 290.9252 0001014  88.1399 271.9709 15.08844485 62770,6917.867,95.437,540.433,539.03,0.0
52284.0,STARLINK-3561,PAYLOAD,2023-06-08 18:44:41,15.08846198,0.0001159,53.2156,290.3292,90.4525,269.66,0.00013317,1.833e-05,0.0,0 STARLINK-3561,1 52284U 22041Z   23159.78103782  .00001833  00000-0  13317-3 0  9999,2 52284  53.2156 290.3292 0001159  90.4525 269.6600 15.08846198 64013,6917.861,95.437,540.528,538.925,0.0
52284.0,STARLINK-3561,PAYLOAD,2023-06-10 00:57:01,15.08836595,0.0001139,53.214,284.6798,95.5042,264.608,4.8762e-05,4.88e-06,0.0,0 STARLINK-3561,1 52284U 22041Z   23161.03960261  .00000488  00000-0  48762-4 0  9991,2 52284  53.2140 284.6798 0001139  95.5042 264.6080 15.08836595 64209,6917.891,95.438,540.544,538.968,0.0
52284.0,STARLINK-3561,PAYLOAD,2023-06-10 08:53:57,15.08833596,0.000116,53.2152,283.1934,100.4226,259.6897,3.6988e-05,3.01e-06,0.0,0 STARLINK-3561,1 52284U 22041Z   23161.37080778  .00000301  00000-0  36988-4 0  9995,2 52284  53.2152 283.1934 0001160 100.4226 259.6897 15.08833596 63030,6917.9,95.438,540.567,538.962,0.0
52284.0,STARLINK-3561,PAYLOAD,2023-06-10 18:26:16,15.08840948,0.0001163,53.2169,281.4101,94.6204,265.4921,7.3377e-05,8.8e-06,0.0,0 STARLINK-3561,1 52284U 22041Z   23161.76824327  .00000880  00000-0  73377-4 0  9999,2 52284  53.2169 281.4101 0001163  94.6204 265.4921 15.08840948 63096,6917.877,95.437,540.547,538.938,0.0
52284.0,STARLINK-3561,PAYLOAD,2023-06-11 07:09:21,15.08834077,0.0001188,53.2171,279.0314,90.3227,269.7901,0.00017916,2.564e-05,0.0,0 STARLINK-3561,1 52284U 22041Z   23162.29816710  .00002564  00000-0  17916-3 0  9992,2 52284  53.2171 279.0314 0001188  90.3227 269.7901 15.08834077 64398,6917.898,95.438,540.585,538.942,0.0
52284.0,STARLINK-3561,PAYLOAD,2023-06-11 18:17:02,15.08846251,0.0001187,53.2172,276.949,91.6608,268.452,0.00012328,1.675e-05,0.0,0 STARLINK-3561,1 52284U 22041Z   23162.76184017  .00001675  00000-0  12328-3 0  9996,2 52284  53.2172 276.9490 0001187  91.6608 268.4520 15.08846251 63249,6917.861,95.437,540.547,538.905,0.0
52284.0,STARLINK-3561,PAYLOAD,2023-06-12 07:00:08,15.08834488,0.0001221,53.2154,274.5688,92.202,267.9112,8.834e-05,1.118e-05,0.0,0 STARLINK-3561,1 52284U 22041Z   23163.29176882  .00001118  00000-0  88340-4 0  9996,2 52284  53.2154 274.5688 0001221  92.2020 267.9112 15.08834488 63325,6917.897,95.438,540.607,538.918,0.0
52284.0,STARLINK-3561,PAYLOAD,2023-06-13 00:29:22,15.08843615,0.0001205,53.2172,271.3001,89.5866,270.5264,4.8888e-05,4.9e-06,0.0,0 STARLINK-3561,1 52284U 22041Z   23164.02040476  .00000490  00000-0  48888-4 0  9992,2 52284  53.2172 271.3001 0001205  89.5866 270.5264 15.08843615 64655,6917.869,95.437,540.568,538.901,0.0
52284.0,STARLINK-3561,PAYLOAD,2023-06-13 03:40:09,15.08838678,0.0001288,53.2171,270.7053,88.4002,271.7137,4.164e-05,3.75e-06,0.0,0 STARLINK-3561,1 52284U 22041Z   23164.15288828  .00000375  00000-0  41640-4 0  9992,2 52284  53.2171 270.7053 0001288  88.4002 271.7137 15.08838678 63457,6917.884,95.438,540.64,538.858,0.0
52284.0,STARLINK-3561,PAYLOAD,2023-06-14 06:41:42,15.0883475,0.000103,53.2164,265.6471,97.2163,262.8946,0.00013106,1.798e-05,0.0,0 STARLINK-3561,1 52284U 22041Z   23165.27896777  .00001798  00000-0  13106-3 0  9999,2 52284  53.2164 265.6471 0001030  97.2163 262.8946 15.08834750 64847,6917.896,95.438,540.474,539.049,0.0
52284.0,STARLINK-3561,PAYLOAD,2023-06-14 16:14:01,15.08844147,0.0001205,53.2164,263.8639,95.7159,264.397,6.6104e-05,7.64e-06,0.0,0 STARLINK-3561,1 52284U 22041Z   23165.67640365  .00000764  00000-0  66104-4 0  9992,2 52284  53.2164 263.8639 0001205  95.7159 264.3970 15.08844147 64907,6917.868,95.437,540.566,538.899,0.0
52284.0,STARLINK-3561,PAYLOAD,2023-06-15 00:10:57,15.08839131,0.0001128,53.2158,262.3757,99.0769,261.0351,1.3333e-05,-7.6e-07,0.0,0 STARLINK-3561,1 52284U 22041Z   23166.00760765 -.00000076  00000-0  13333-4 0  9990,2 52284  53.2158 262.3757 0001128  99.0769 261.0351 15.08839131 64952,6917.883,95.438,540.528,538.968,0.0
52284.0,STARLINK-3561,PAYLOAD,2023-06-15 12:54:02,15.0883645,0.0001156,53.2164,259.9991,85.4914,274.621,2.4481e-05,1.02e-06,0.0,0 STARLINK-3561,1 52284U 22041Z   23166.53753118  .00000102  00000-0  24481-4 0  9997,2 52284  53.2164 259.9991 0001156  85.4914 274.6210 15.08836450 63812,6917.891,95.438,540.556,538.957,0.0
52284.0,STARLINK-3561,PAYLOAD,2023-06-16 09:34:02,15.08869632,0.0001892,53.2165,256.1334,85.5208,274.6,-0.00017564,-3.085e-05,0.0,0 STARLINK-3561,1 52284U 22041Z   23167.39863515 -.00003085  00000-0 -17564-3 0  9993,2 52284  53.2165 256.1334 0001892  85.5208 274.6000 15.08869632 65162,6917.79,95.436,540.964,538.346,0.0
52284.0,STARLINK-3561,PAYLOAD,2023-06-16 12:44:48,15.08854123,0.0001167,53.2161,255.5383,93.5761,266.5365,0.00015569,2.192e-05,0.0,0 STARLINK-3561,1 52284U 22041Z   23167.53111554  .00002192  00000-0  15569-3 0  9997,2 52284  53.2161 255.5383 0001167  93.5761 266.5365 15.08854123 63962,6917.837,95.437,540.51,538.895,0.0
52284.0,STARLINK-3561,PAYLOAD,2023-06-16 15:55:34,15.08859029,0.0001152,53.2162,254.9438,91.4627,268.6497,0.00020717,3.012e-05,0.0,0 STARLINK-3561,1 52284U 22041Z   23167.66359165  .00003012  00000-0  20717-3 0  9996,2 52284  53.2162 254.9438 0001152  91.4627 268.6497 15.08859029 63980,6917.822,95.436,540.484,538.89,0.0
52284.0,STARLINK-3561,PAYLOAD,2023-06-16 22:17:08,15.08838968,0.0001739,53.2158,253.753,82.4807,277.6383,9.9031e-05,1.288e-05,0.0,0 STARLINK-3561,1 52284U 22041Z   23167.92856897  .00001288  00000-0  99031-4 0  9998,2 52284  53.2158 253.7530 0001739  82.4807 277.6383 15.08838968 65240,6917.884,95.438,540.952,538.546,0.0
52284.0,STARLINK-3561,PAYLOAD,2023-06-17 12:35:36,15.08838719,0.0001219,53.2164,251.0788,100.6083,259.5046,4.8956e-05,4.91e-06,0.0,0 STARLINK-3561,1 52284U 22041Z   23168.52472838  .00000491  00000-0  48956-4 0  9999,2 52284  53.2164 251.0788 0001219 100.6083 259.5046 15.08838719 64119,6917.884,95.438,540.593,538.906,0.0
52284.0,STARLINK-3561,PAYLOAD,2023-06-18 12:26:23,15.08836877,0.0001083,53.2163,246.6191,101.9294,258.1819,5.9863e-05,6.65e-06,0.0,0 STARLINK-3561,1 52284U 22041Z   23169.51832950  .00000665  00000-0  59863-4 0  9996,2 52284  53.2163 246.6191 0001083 101.9294 258.1819 15.08836877 64265,6917.89,95.438,540.504,539.006,0.0
52284.0,STARLINK-3561,PAYLOAD,2023-06-19 04:20:15,15.08840863,0.0001077,53.2156,243.6455,102.447,257.6643,0.00024115,3.552e-05,0.0,0 STARLINK-3561,1 52284U 22041Z   23170.18073072  .00003552  00000-0  24115-3 0  9992,2 52284  53.2156 243.6455 0001077 102.4470 257.6643 15.08840863 64362,6917.878,95.438,540.488,538.998,0.0
52284.0,STARLINK-3561,PAYLOAD,2023-06-19 21:49:28,15.08861673,0.000117,53.2151,240.3742,77.5372,282.575,0.0004785,7.34e-05,0.0,0 STARLINK-3561,1 52284U 22041Z   23170.90935996  .00007340  00000-0  47850-3 0  9994,2 52284  53.2151 240.3742 0001170  77.5372 282.5750 15.08861673 65692,6917.814,95.436,540.489,538.87,0.0
52284.0,STARLINK-3561,PAYLOAD,2023-06-20 05:46:25,15.08828254,9.18e-05,53.2144,238.8877,91.2089,268.9009,-0.00029253,-4.939e-05,0.0,0 STARLINK-3561,1 52284U 22041Z   23171.24056910 -.00004939  00000-0 -29253-3 0  9992,2 52284  53.2144 238.8877 0000918  91.2089 268.9009 15.08828254 65741,6917.916,95.438,540.416,539.146,0.0
52284.0,STARLINK-3561,PAYLOAD,2023-06-21 10:23:22,15.08837664,0.0001034,53.2135,233.5335,78.7063,281.4046,0.0005453,8.401e-05,0.0,0 STARLINK-3561,1 52284U 22041Z   23172.43289538  .00008401  00000-0  54530-3 0  9990,2 52284  53.2135 233.5335 0001034  78.7063 281.4046 15.08837664 65920,6917.888,95.438,540.468,539.037,0.0
52284.0,STARLINK-3561,PAYLOAD,2023-06-22 10:14:09,15.08847633,0.0001131,53.2136,229.0733,79.5788,280.5332,0.00046782,7.167e-05,0.0,0 STARLINK-3561,1 52284U 22041Z   23173.42649540  .00007167  00000-0  46782-3 0  9991,2 52284  53.2136 229.0733 0001131  79.5788 280.5332 15.08847633 66076,6917.857,95.437,540.504,538.94,0.0
